CCSDS_OMM_VERS,COMMENT,CREATION_DATE,ORIGINATOR,OBJECT_NAME,OBJECT_ID,CENTER_NAME,REF_FRAME,TIME_SYSTEM,MEAN_ELEMENT_THEORY,EPOCH,MEAN_MOTION,ECCENTRICITY,INCLINATION,RA_OF_ASC_NODE,ARG_OF_PERICENTER,MEAN_ANOMALY,EPHEMERIS_TYPE,CLASSIFICATION_TYPE,NORAD_CAT_ID,ELEMENT_SET_NO,REV_AT_EPOCH,BSTAR,MEAN_MOTION_DOT,MEAN_MOTION_DDOT,SEMIMAJOR_AXIS,PERIOD,APOAPSIS,PERIAPSIS,OBJECT_TYPE,RCS_SIZE,COUNTRY_CODE,LAUNCH_DATE,SITE,DECAY_DATE,FILE,GP_ID,TLE_LINE0,TLE_LINE1,TLE_LINE2
2,GENERATED VIA SPACE-TRACK.ORG API,2004-05-30T15:45:14,18 SPCS,SKYNET 4D,1998-002A,EARTH,TEME,UTC,SGP4,2004-02-16T05:45:20.143872,1.00014366,0.0019857,1.4391,29.0448,1.898,170.5767,0,U,25134,999,2239,0.0001,-2.54e-06,0,42237.077,1439.793,35942.812,35775.072,PAYLOAD,LARGE,UK,1998-01-10,AFETR,,7894,7259295,0 SKYNET 4D,1 25134U 98002A   04047.23981648 -.00000254 +00000-0 +10000-3 0  9996,2 25134 001.4391 029.0448 0019857 001.8980 170.5767 01.00014366022398
2,GENERATED VIA SPACE-TRACK.ORG API,2004-05-30T15:45:17,18 SPCS,SKYNET 4D,1998-002A,EARTH,TEME,UTC,SGP4,2004-02-16T22:57:47.500991,1.00014048,0.0019698,1.439,29.047,2.0531,68.5728,0,U,25134,999,2240,0.0001,-2.6e-06,0,42237.167,1439.797,35942.23,35775.833,PAYLOAD,LARGE,UK,1998-01-10,AFETR,,7895,7266366,0 SKYNET 4D,1 25134U 98002A   04047.95679978 -.00000260 +00000-0 +10000-3 0  9992,2 25134 001.4390 029.0470 0019698 002.0531 068.5728 01.00014048022402
2,GENERATED VIA SPACE-TRACK.ORG API,2004-05-30T15:45:23,18 SPCS,SKYNET 4D,1998-002A,EARTH,TEME,UTC,SGP4,2004-02-18T02:41:47.001119,1.00013529,0.0019304,1.4419,29.1682,2.5157,124.0495,0,U,25134,999,2241,0.0001,-2.67e-06,0,42237.313,1439.805,35940.713,35777.643,PAYLOAD,LARGE,UK,1998-01-10,AFETR,,7897,7273524,0 SKYNET 4D,1 25134U 98002A   04049.11234955 -.00000267 +00000-0 +10000-3 0  9991,2 25134 001.4419 029.1682 0019304 002.5157 124.0495 01.00013529022416
2,GENERATED VIA SPACE-TRACK.ORG API,2004-05-30T15:45:29,18 SPCS,SKYNET 4D,1998-002A,EARTH,TEME,UTC,SGP4,2004-02-19T02:45:01.501343,1.00013713,0.0019844,1.4429,29.153,3.2751,124.1841,0,U,25134,999,2242,0.0001,-2.72e-06,0,42237.261,1439.802,35942.942,35775.31,PAYLOAD,LARGE,UK,1998-01-10,AFETR,,7899,7287775,0 SKYNET 4D,1 25134U 98002A   04050.11460071 -.00000272 +00000-0 +10000-3 0  9999,2 25134 001.4429 029.1530 0019844 003.2751 124.1841 01.00013713022428
2,GENERATED VIA SPACE-TRACK.ORG API,2004-08-17T16:15:54,18 SPCS,SKYNET 4D,1998-002A,EARTH,TEME,UTC,SGP4,2004-02-21T16:48:00.000000,1.00210208,0.0005832,1.44,29.903,352.413,346.316,0,U,25134,999,2244,0.0,-2.6e-06,0,42182.03,1436.979,35828.495,35779.294,PAYLOAD,LARGE,UK,1998-01-10,AFETR,,36567,38796901,0 SKYNET 4D,1 25134U 98002A   04052.70000000 -.00000260  00000-0  00000+0 0  9990,2 25134 001.4400 029.9030 0005832 352.4130 346.3160 01.00210208 22444
2,GENERATED VIA SPACE-TRACK.ORG API,2004-05-30T15:45:41,18 SPCS,SKYNET 4D,1998-002A,EARTH,TEME,UTC,SGP4,2004-02-23T14:25:30.370079,1.00210242,0.0005959,1.4395,29.809,354.7542,309.8773,0,U,25134,999,2246,0.0,-2.56e-06,0,42182.02,1436.978,35829.021,35778.749,PAYLOAD,LARGE,UK,1998-01-10,AFETR,,7903,7309148,0 SKYNET 4D,1 25134U 98002A   04054.60104595 -.00000256 +00000-0 +00000-0 0  9991,2 25134 001.4395 029.8090 0005959 354.7542 309.8773 01.00210242022468
2,GENERATED VIA SPACE-TRACK.ORG API,2004-08-17T16:16:30,18 SPCS,SKYNET 4D,1998-002A,EARTH,TEME,UTC,SGP4,2004-02-24T22:56:45.646368,1.00209837,0.0005959,1.4409,29.7909,354.7996,78.6979,0,U,25134,999,2248,0.0,-2.53e-06,0,42182.134,1436.984,35829.135,35778.862,PAYLOAD,LARGE,UK,1998-01-10,AFETR,,36579,38802528,0 SKYNET 4D,1 25134U 98002A   04055.95608387 -.00000253  00000-0  00000+0 0  9994,2 25134 001.4409 029.7909 0005959 354.7996 078.6979 01.00209837 22484
2,GENERATED VIA SPACE-TRACK.ORG API,2004-05-30T15:45:47,18 SPCS,SKYNET 4D,1998-002A,EARTH,TEME,UTC,SGP4,2004-02-25T07:11:59.999999,1.00281326,0.0003487,1.457,30.55,306.866,250.093,0,U,25134,999,2248,0.0,-2.45e-06,0,42162.084,1435.96,35798.651,35769.247,PAYLOAD,LARGE,UK,1998-01-10,AFETR,,7905,7323249,0 SKYNET 4D,1 25134U 98002A   04056.30000000 -.00000245 +00000-0 +00000-0 0  9994,2 25134 001.4570 030.5500 0003487 306.8660 250.0930 01.00281326022486
2,GENERATED VIA SPACE-TRACK.ORG API,2004-05-30T15:45:50,18 SPCS,SKYNET 4D,1998-002A,EARTH,TEME,UTC,SGP4,2004-02-25T22:33:24.149376,1.00290964,0.0004322,1.454,30.2927,311.2498,116.9742,0,U,25134,999,2249,0.0,-2.42e-06,0,42159.383,1435.822,35799.469,35763.026,PAYLOAD,LARGE,UK,1998-01-10,AFETR,,7906,7330302,0 SKYNET 4D,1 25134U 98002A   04056.93986284 -.00000242 +00000-0 +00000-0 0  9997,2 25134 001.4540 030.2927 0004322 311.2498 116.9742 01.00290964022491
2,GENERATED VIA SPACE-TRACK.ORG API,2004-08-17T16:16:30,18 SPCS,SKYNET 4D,1998-002A,EARTH,TEME,UTC,SGP4,2004-02-26T23:16:12.152640,1.00293313,0.0004162,1.4524,30.3048,308.9254,131.0934,0,U,25134,999,2250,0.0,-2.4e-06,0,42158.724,1435.788,35798.136,35763.043,PAYLOAD,LARGE,UK,1998-01-10,AFETR,,36579,38807304,0 SKYNET 4D,1 25134U 98002A   04057.96958510 -.00000240  00000-0  00000+0 0  9999,2 25134 001.4524 030.3048 0004162 308.9254 131.0934 01.00293313 22507
2,GENERATED VIA SPACE-TRACK.ORG API,2004-05-30T15:45:53,18 SPCS,SKYNET 4D,1998-002A,EARTH,TEME,UTC,SGP4,2004-02-27T06:23:58.147872,1.00292908,0.0003503,1.449,30.3593,331.8431,215.3909,0,U,25134,999,2250,0.0,-2.39e-06,0,42158.838,1435.794,35795.471,35765.935,PAYLOAD,LARGE,UK,1998-01-10,AFETR,,7907,7337269,0 SKYNET 4D,1 25134U 98002A   04058.26664523 -.00000239 +00000-0 +00000-0 0  9990,2 25134 001.4490 030.3593 0003503 331.8431 215.3909 01.00292908022501
2,GENERATED VIA SPACE-TRACK.ORG API,2004-05-30T15:45:56,18 SPCS,SKYNET 4D,1998-002A,EARTH,TEME,UTC,SGP4,2004-02-28T00:55:58.501056,1.00296683,0.0003324,1.4521,30.3701,325.9902,140.0706,0,U,25134,999,2251,0.0,-2.37e-06,0,42157.78,1435.74,35793.658,35765.632,PAYLOAD,LARGE,UK,1998-01-10,AFETR,,7908,7344312,0 SKYNET 4D,1 25134U 98002A   04059.03887154 -.00000237 +00000-0 +00000-0 0  9991,2 25134 001.4521 030.3701 0003324 325.9902 140.0706 01.00296683022519
2,GENERATED VIA SPACE-TRACK.ORG API,2004-05-30T15:45:59,18 SPCS,SKYNET 4D,1998-002A,EARTH,TEME,UTC,SGP4,2004-02-29T04:43:59.001024,1.00295709,0.0003392,1.4532,30.4324,327.3484,196.8921,0,U,25134,999,2252,0.0,-2.37e-06,0,42158.053,1435.754,35794.218,35765.618,PAYLOAD,LARGE,UK,1998-01-10,AFETR,,7909,7351424,0 SKYNET 4D,1 25134U 98002A   04060.19721066 -.00000237 +00000-0 +00000-0 0  9999,2 25134 001.4532 030.4324 0003392 327.3484 196.8921 01.00295709022526
2,GENERATED VIA SPACE-TRACK.ORG API,2004-05-30T15:46:02,18 SPCS,SKYNET 4D,1998-002A,EARTH,TEME,UTC,SGP4,2004-02-29T22:45:24.143039,1.0029538,0.0003429,1.453,30.4659,327.0489,108.3163,0,U,25134,999,2253,0.0,-2.37e-06,0,42158.145,1435.759,35794.466,35765.554,PAYLOAD,LARGE,UK,1998-01-10,AFETR,,7910,7358434,0 SKYNET 4D,1 25134U 98002A   04060.94819610 -.00000237 +00000-0 +00000-0 0  9995,2 25134 001.4530 030.4659 0003429 327.0489 108.3163 01.00295380022530
2,GENERATED VIA SPACE-TRACK.ORG API,2004-05-30T15:46:05,18 SPCS,SKYNET 4D,1998-002A,EARTH,TEME,UTC,SGP4,2004-03-01T23:29:39.501023,1.00295245,0.000344,1.4533,30.4735,326.0502,121.4766,0,U,25134,999,2254,0.0,-2.37e-06,0,42158.183,1435.76,35794.55,35765.546,PAYLOAD,LARGE,UK,1998-01-10,AFETR,,7911,7365480,0 SKYNET 4D,1 25134U 98002A   04061.97892941 -.00000237 +00000-0 +00000-0 0  9997,2 25134 001.4533 030.4735 0003440 326.0502 121.4766 01.00295245022542
2,GENERATED VIA SPACE-TRACK.ORG API,2004-05-30T15:46:08,18 SPCS,SKYNET 4D,1998-002A,EARTH,TEME,UTC,SGP4,2004-03-03T21:46:04.501056,1.00294562,0.0003491,1.4547,30.5088,325.9244,97.7306,0,U,25134,999,2256,0.0,-2.38e-06,0,42158.374,1435.77,35794.957,35765.522,PAYLOAD,LARGE,UK,1998-01-10,AFETR,,7912,7372495,0 SKYNET 4D,1 25134U 98002A   04063.90699654 -.00000238 +00000-0 +00000-0 0  9999,2 25134 001.4547 030.5088 0003491 325.9244 097.7306 01.00294562022564
2,GENERATED VIA SPACE-TRACK.ORG API,2004-05-30T15:46:11,18 SPCS,SKYNET 4D,1998-002A,EARTH,TEME,UTC,SGP4,2004-03-04T06:41:58.147871,1.00294442,0.0003499,1.4551,30.5193,325.9523,232.0628,0,U,25134,999,2256,0.0,-2.38e-06,0,42158.408,1435.772,35795.024,35765.522,PAYLOAD,LARGE,UK,1998-01-10,AFETR,,7913,7379461,0 SKYNET 4D,1 25134U 98002A   04064.27914523 -.00000238 +00000-0 +00000-0 0  9995,2 25134 001.4551 030.5193 0003499 325.9523 232.0628 01.00294442022562
2,GENERATED VIA SPACE-TRACK.ORG API,2004-05-30T15:46:14,18 SPCS,SKYNET 4D,1998-002A,EARTH,TEME,UTC,SGP4,2004-03-05T00:38:24.161856,1.00294224,0.0003506,1.4563,30.5238,325.7817,142.1348,0,U,25134,999,2257,0.0,-2.38e-06,0,42158.469,1435.775,35795.115,35765.553,PAYLOAD,LARGE,UK,1998-01-10,AFETR,,7914,7386409,0 SKYNET 4D,1 25134U 98002A   04065.02666854 -.00000238 +00000-0 +00000-0 0  9990,2 25134 001.4563 030.5238 0003506 325.7817 142.1348 01.00294224022577
2,GENERATED VIA SPACE-TRACK.ORG API,2004-05-30T15:46:17,18 SPCS,SKYNET 4D,1998-002A,EARTH,TEME,UTC,SGP4,2004-03-06T00:41:24.146016,1.0029377,0.00035,1.457,30.571,328.4617,141.2215,0,U,25134,999,2258,0.0,-2.38e-06,0,42158.596,1435.782,35795.217,35765.706,PAYLOAD,LARGE,UK,1998-01-10,AFETR,,7915,7393549,0 SKYNET 4D,1 25134U 98002A   04066.02875169 -.00000238 +00000-0 +00000-0 0  9992,2 25134 001.4570 030.5710 0003500 328.4617 141.2215 01.00293770022581
2,GENERATED VIA SPACE-TRACK.ORG API,2004-05-30T15:46:20,18 SPCS,SKYNET 4D,1998-002A,EARTH,TEME,UTC,SGP4,2004-03-07T00:44:24.158688,1.00293461,0.0003504,1.4582,30.5612,328.3791,143.1301,0,U,25134,999,2259,0.0,-2.37e-06,0,42158.683,1435.786,35795.32,35765.776,PAYLOAD,LARGE,UK,1998-01-10,AFETR,,7916,7400677,0 SKYNET 4D,1 25134U 98002A   04067.03083517 -.00000237 +00000-0 +00000-0 0  9991,2 25134 001.4582 030.5612 0003504 328.3791 143.1301 01.00293461022596
